{"type": "FeatureCollection", "features": [ {"type": "Feature", "properties": {"norad_id": 66494, "name": "STARLINK-35689", "group": "last-30-days", "lat": -24.03443118044119, "lon": -31.064676256027184, "alt_km": 425.88002444156245, "timestamp": "2025-12-13T13:34:33.863487+00:00", "meta": {"OBJECT_NAME": "STARLINK-35689", "OBJECT_ID": "2025-263K", "EPOCH": "2025-12-12T18:03:24.665184", "MEAN_MOTION": 15.47517155, "ECCENTRICITY": 0.00021524, "INCLINATION": 42.9971, "RA_OF_ASC_NODE": 125.0777, "ARG_OF_PERICENTER": 302.4914, "MEAN_ANOMALY": 57.5737, "EPHEMERIS_TYPE": 0, "CLASSIFICATION_TYPE": "U", "NORAD_CAT_ID": 66494, "ELEMENT_SET_NO": 999, "REV_AT_EPOCH": 556, "BSTAR": 0.0016577823, "MEAN_MOTION_DOT": 0.00087982, "MEAN_MOTION_DDOT": 0}, "tle": {"line1": "1 66494U 25263K   25346.75236881  .00087982  00000+0  16578-2 0  9999", "line2": "2 66494  42.9971 125.0777 0002152 302.4914  57.5737 15.47517155  5566"}}, "geometry": {"type": "Point", "coordinates": [-31.064676256027184, -24.03443118044119]}}, {"type": "Feature", "properties": {"norad_id": 66495, "name": "STARLINK-35832", "group": "last-30-days", "lat": -33.23828025326384, "lon": -15.008194954753911, "alt_km": 420.27535250809433, "timestamp": "2025-12-13T13:34:33.863497+00:00", "meta": {"OBJECT_NAME": "STARLINK-35832", "OBJECT_ID": "2025-263L", "EPOCH": "2025-12-12T19:33:21.941856", "MEAN_MOTION": 15.49798239, "ECCENTRICITY": 0.00024982, "INCLINATION": 42.9996, "RA_OF_ASC_NODE": 124.6875, "ARG_OF_PERICENTER": 262.5587, "MEAN_ANOMALY": 97.4989, "EPHEMERIS_TYPE": 0, "CLASSIFICATION_TYPE": "U", "NORAD_CAT_ID": 66495, "ELEMENT_SET_NO": 999, "REV_AT_EPOCH": 557, "BSTAR": -0.0060463366, "MEAN_MOTION_DOT": -0.00331191, "MEAN_MOTION_DDOT": 0}, "tle": {"line1": "1 66495U 25263L   25346.81483729 -.00331191  00000+0 -60463-2 0  9990", "line2": "2 66495  42.9996 124.6875 0002498 262.5587  97.4989 15.49798239  5572"}}, "geometry": {"type": "Point", "coordinates": [-15.008194954753911, -33.23828025326384]}}, {"type": "Feature", "properties": {"norad_id": 66496, "name": "STARLINK-35909", "group": "last-30-days", "lat": -35.841397766824045, "lon": -8.89108384925338, "alt_km": 416.87531452025996, "timestamp": "2025-12-13T13:34:33.863506+00:00", "meta": {"OBJECT_NAME": "STARLINK-35909", "OBJECT_ID": "2025-263M", "EPOCH": "2025-12-12T17:59:55.902048", "MEAN_MOTION": 15.50601004, "ECCENTRICITY": 0.00015889, "INCLINATION": 42.9983, "RA_OF_ASC_NODE": 125.0593, "ARG_OF_PERICENTER": 275.2711, "MEAN_ANOMALY": 84.7968, "EPHEMERIS_TYPE": 0, "CLASSIFICATION_TYPE": "U", "NORAD_CAT_ID": 66496, "ELEMENT_SET_NO": 999, "REV_AT_EPOCH": 556, "BSTAR": 0.0011964781, "MEAN_MOTION_DOT": 0.00070541, "MEAN_MOTION_DDOT": 0}, "tle": {"line1": "1 66496U 25263M   25346.74995257  .00070541  00000+0  11965-2 0  9997", "line2": "2 66496  42.9983 125.0593 0001588 275.2711  84.7968 15.50601004  5560"}}, "geometry": {"type": "Point", "coordinates": [-8.89108384925338, -35.841397766824045]}}, {"type": "Feature", "properties": {"norad_id": 66497, "name": "STARLINK-35899", "group": "last-30-days", "lat": -36.69448107554924, "lon": -6.6104682613815235, "alt_km": 416.7526143198256, "timestamp": "2025-12-13T13:34:33.863515+00:00", "meta": {"OBJECT_NAME": "STARLINK-35899", "OBJECT_ID": "2025-263N", "EPOCH": "2025-12-12T17:59:25.949760", "MEAN_MOTION": 15.50614255, "ECCENTRICITY": 0.00016472, "INCLINATION": 42.9982, "RA_OF_ASC_NODE": 125.0558, "ARG_OF_PERICENTER": 278.6423, "MEAN_ANOMALY": 81.4251, "EPHEMERIS_TYPE": 0, "CLASSIFICATION_TYPE": "U", "NORAD_CAT_ID": 66497, "ELEMENT_SET_NO": 999, "REV_AT_EPOCH": 556, "BSTAR": 0.0016088279, "MEAN_MOTION_DOT": 0.00095318, "MEAN_MOTION_DDOT": 0}, "tle": {"line1": "1 66497U 25263N   25346.74960590  .00095318  00000+0  16088-2 0  9990", "line2": "2 66497  42.9982 125.0558 0001647 278.6423  81.4251 15.50614255  5565"}}, "geometry": {"type": "Point", "coordinates": [-6.6104682613815235, -36.69448107554924]}}, {"type": "Feature", "properties": {"norad_id": 66498, "name": "STARLINK-35907", "group": "last-30-days", "lat": 32.69733168818513, "lon": -102.97971801667407, "alt_km": 439.3797565228251, "timestamp": "2025-12-13T13:34:33.863524+00:00", "meta": {"OBJECT_NAME": "STARLINK-35907", "OBJECT_ID": "2025-263P", "EPOCH": "2025-12-12T20:00:01.999872", "MEAN_MOTION": 15.40608236, "ECCENTRICITY": 0.00013994, "INCLINATION": 43.0003, "RA_OF_ASC_NODE": 124.7812, "ARG_OF_PERICENTER": 277.1302, "MEAN_ANOMALY": 103.7876, "EPHEMERIS_TYPE": 0, "CLASSIFICATION_TYPE": "U", "NORAD_CAT_ID": 66498, "ELEMENT_SET_NO": 999, "REV_AT_EPOCH": 565, "BSTAR": 0.0031836531, "MEAN_MOTION_DOT": 0.00134646, "MEAN_MOTION_DDOT": 0}, "tle": {"line1": "1 66498U 25263P   25346.83335648  .00134646  00000+0  31837-2 0  9998", "line2": "2 66498  43.0003 124.7812 0001399 277.1302 103.7876 15.40608236  5657"}}, "geometry": {"type": "Point", "coordinates": [-102.97971801667407, 32.69733168818513]}}, {"type": "Feature", "properties": {"norad_id": 66499, "name": "STARLINK-35816", "group": "last-30-days", "lat": 10.191846462411464, "lon": -70.65473355331216, "alt_km": 442.4676513470504, "timestamp": "2025-12-13T13:34:33.863533+00:00", "meta": {"OBJECT_NAME": "STARLINK-35816", "OBJECT_ID": "2025-263Q", "EPOCH": "2025-12-12T20:00:01.999872", "MEAN_MOTION": 15.40610724, "ECCENTRICITY": 0.00014046, "INCLINATION": 42.9999, "RA_OF_ASC_NODE": 124.6902, "ARG_OF_PERICENTER": 277.0339, "MEAN_ANOMALY": 141.1992, "EPHEMERIS_TYPE": 0, "CLASSIFICATION_TYPE": "U", "NORAD_CAT_ID": 66499, "ELEMENT_SET_NO": 999, "REV_AT_EPOCH": 565, "BSTAR": 0.003413869, "MEAN_MOTION_DOT": 0.00144607, "MEAN_MOTION_DDOT": 0}, "tle": {"line1": "1 66499U 25263Q   25346.83335648  .00144607  00000+0  34139-2 0  9995", "line2": "2 66499  42.9999 124.6902 0001404 277.0339 141.1992 15.40610724  5655"}}, "geometry": {"type": "Point", "coordinates": [-70.65473355331216, 10.191846462411464]}}, {"type": "Feature", "properties": {"norad_id": 66500, "name": "STARLINK-35894", "group": "last-30-days", "lat": 42.23371749499302, "lon": -136.32319690440838, "alt_km": 446.0899252050358, "timestamp": "2025-12-13T13:34:33.863542+00:00", "meta": {"OBJECT_NAME": "STARLINK-35894", "OBJECT_ID": "2025-263R", "EPOCH": "2025-12-12T20:00:01.999872", "MEAN_MOTION": 15.41043182, "ECCENTRICITY": 0.00015274, "INCLINATION": 43.0007, "RA_OF_ASC_NODE": 124.8421, "ARG_OF_PERICENTER": 262.8082, "MEAN_ANOMALY": 93.1523, "EPHEMERIS_TYPE": 0, "CLASSIFICATION_TYPE": "U", "NORAD_CAT_ID": 66500, "ELEMENT_SET_NO": 999, "REV_AT_EPOCH": 565, "BSTAR": -0.048905087, "MEAN_MOTION_DOT": -0.01856495, "MEAN_MOTION_DDOT": 0}, "tle": {"line1": "1 66500U 25263R   25346.83335648 -.01856495  00000+0 -48905-1 0  9991", "line2": "2 66500  43.0007 124.8421 0001527 262.8082  93.1523 15.41043182  5656"}}, "geometry": {"type": "Point", "coordinates": [-136.32319690440838, 42.23371749499302]}}, {"type": "Feature", "properties": {"norad_id": 66501, "name": "STARLINK-35897", "group": "last-30-days", "lat": -6.3930745006226495, "lon": -52.68426215862323, "alt_km": 445.8959597282037, "timestamp": "2025-12-13T13:34:33.863552+00:00", "meta": {"OBJECT_NAME": "STARLINK-35897", "OBJECT_ID": "2025-263S", "EPOCH": "2025-12-12T20:00:01.999872", "MEAN_MOTION": 15.41032276, "ECCENTRICITY": 0.00016666, "INCLINATION": 43, "RA_OF_ASC_NODE": 124.6303, "ARG_OF_PERICENTER": 268.0557, "MEAN_ANOMALY": 174.8771, "EPHEMERIS_TYPE": 0, "CLASSIFICATION_TYPE": "U", "NORAD_CAT_ID": 66501, "ELEMENT_SET_NO": 999, "REV_AT_EPOCH": 565, "BSTAR": -0.013500736, "MEAN_MOTION_DOT": -0.00532488, "MEAN_MOTION_DDOT": 0}, "tle": {"line1": "1 66501U 25263S   25346.83335648 -.00532488  00000+0 -13501-1 0  9998", "line2": "2 66501  43.0000 124.6303 0001666 268.0557 174.8771 15.41032276  5650"}}, "geometry": {"type": "Point", "coordinates": [-52.68426215862323, -6.3930745006226495]}}, {"type": "Feature", "properties": {"norad_id": 66502, "name": "STARLINK-35922", "group": "last-30-days", "lat": -41.099177209097164, "lon": 9.66374198941765, "alt_km": 416.8054285993585, "timestamp": "2025-12-13T13:34:33.863561+00:00", "meta": {"OBJECT_NAME": "STARLINK-35922", "OBJECT_ID": "2025-263T", "EPOCH": "2025-12-12T17:55:58.795392", "MEAN_MOTION": 15.50609171, "ECCENTRICITY": 0.00015478, "INCLINATION": 42.999, "RA_OF_ASC_NODE": 125.0365, "ARG_OF_PERICENTER": 278.8468, "MEAN_ANOMALY": 81.2217, "EPHEMERIS_TYPE": 0, "CLASSIFICATION_TYPE": "U", "NORAD_CAT_ID": 66502, "ELEMENT_SET_NO": 999, "REV_AT_EPOCH": 556, "BSTAR": 0.0018757972, "MEAN_MOTION_DOT": 0.00111401, "MEAN_MOTION_DDOT": 0}, "tle": {"line1": "1 66502U 25263T   25346.74720828  .00111401  00000+0  18758-2 0  9993", "line2": "2 66502  42.9990 125.0365 0001547 278.8468  81.2217 15.50609171  5568"}}, "geometry": {"type": "Point", "coordinates": [9.66374198941765, -41.099177209097164]}}, {"type": "Feature", "properties": {"norad_id": 66503, "name": "STARLINK-35917", "group": "last-30-days", "lat": -29.78694004269329, "lon": -21.78311787513113, "alt_km": 442.6614460044657, "timestamp": "2025-12-13T13:34:33.863570+00:00", "meta": {"OBJECT_NAME": "STARLINK-35917", "OBJECT_ID": "2025-263U", "EPOCH": "2025-12-12T20:00:01.999872", "MEAN_MOTION": 15.44974609, "ECCENTRICITY": 0.00015575, "INCLINATION": 43.0002, "RA_OF_ASC_NODE": 124.5567, "ARG_OF_PERICENTER": 287.3644, "MEAN_ANOMALY": 185.6338, "EPHEMERIS_TYPE": 0, "CLASSIFICATION_TYPE": "U", "NORAD_CAT_ID": 66503, "ELEMENT_SET_NO": 999, "REV_AT_EPOCH": 565, "BSTAR": -0.046418719, "MEAN_MOTION_DOT": -0.01997372, "MEAN_MOTION_DDOT": 0}, "tle": {"line1": "1 66503U 25263U   25346.83335648 -.01997372  00000+0 -46419-1 0  9992", "line2": "2 66503  43.0002 124.5567 0001557 287.3644 185.6338 15.44974609  5652"}}, "geometry": {"type": "Point", "coordinates": [-21.78311787513113, -29.78694004269329]}}]}